{"type": "FeatureCollection", "features": [{"type": "Feature", "properties": {"norad_id": 50032, "name": "COSMOS 1408 DEB", "group": "cosmos-1408-debris", "lat": -31.029208438464, "lon": -128.94365480968906, "alt_km": 427.32684896253977, "timestamp": "2025-12-24T09:46:31.274617+00:00", "meta": {"OBJECT_NAME": "COSMOS 1408 DEB", "OBJECT_ID": "1982-092RU", "EPOCH": "2025-12-24T02:39:02.736576", "MEAN_MOTION": 15.45803659, "ECCENTRICITY": 0.0016397, "INCLINATION": 82.5629, "RA_OF_ASC_NODE": 46.8537, "ARG_OF_PERICENTER": 166.5773, "MEAN_ANOMALY": 193.5915, "EPHEMERIS_TYPE": 0, "CLASSIFICATION_TYPE": "U", "NORAD_CAT_ID": 50032, "ELEMENT_SET_NO": 999, "REV_AT_EPOCH": 22779, "BSTAR": 0.00010877, "MEAN_MOTION_DOT": 5.336e-05, "MEAN_MOTION_DDOT": 0}, "tle": {"line1": "1 50032U 82092RU  25358.11044834  .00005336  00000+0  10877-3 0  9991", "line2": "2 50032  82.5629  46.8537 0016397 166.5773 193.5915 15.45803659227794"}}, "geometry": {"type": "Point", "coordinates": [-128.94365480968906, -31.029208438464]}}, {"type": "Feature", "properties": {"norad_id": 50058, "name": "COSMOS 1408 DEB", "group": "cosmos-1408-debris", "lat": 61.986352974969385, "lon": -136.99346522519318, "alt_km": 362.0752203392294, "timestamp": "2025-12-24T09:46:31.274638+00:00", "meta": {"OBJECT_NAME": "COSMOS 1408 DEB", "OBJECT_ID": "1982-092SW", "EPOCH": "2025-12-24T03:08:20.815008", "MEAN_MOTION": 15.64775502, "ECCENTRICITY": 0.0015899, "INCLINATION": 82.6116, "RA_OF_ASC_NODE": 57.4139, "ARG_OF_PERICENTER": 60.5164, "MEAN_ANOMALY": 299.7678, "EPHEMERIS_TYPE": 0, "CLASSIFICATION_TYPE": "U", "NORAD_CAT_ID": 50058, "ELEMENT_SET_NO": 999, "REV_AT_EPOCH": 22982, "BSTAR": 0.00031674, "MEAN_MOTION_DOT": 0.00031076, "MEAN_MOTION_DDOT": 0}, "tle": {"line1": "1 50058U 82092SW  25358.13079647  .00031076  00000+0  31674-3 0  9999", "line2": "2 50058  82.6116  57.4139 0015899  60.5164 299.7678 15.64775502229820"}}, "geometry": {"type": "Point", "coordinates": [-136.99346522519318, 61.986352974969385]}}, {"type": "Feature", "properties": {"norad_id": 50404, "name": "COSMOS 1408 DEB", "group": "cosmos-1408-debris", "lat": -57.784796204763275, "lon": -169.48896436273432, "alt_km": 617.1863365044492, "timestamp": "2025-12-24T09:46:31.274652+00:00", "meta": {"OBJECT_NAME": "COSMOS 1408 DEB", "OBJECT_ID": "1982-092ADS", "EPOCH": "2025-12-24T00:32:03.906816", "MEAN_MOTION": 15.15534968, "ECCENTRICITY": 0.0167278, "INCLINATION": 82.2021, "RA_OF_ASC_NODE": 203.468, "ARG_OF_PERICENTER": 160.1266, "MEAN_ANOMALY": 200.6591, "EPHEMERIS_TYPE": 0, "CLASSIFICATION_TYPE": "U", "NORAD_CAT_ID": 50404, "ELEMENT_SET_NO": 999, "REV_AT_EPOCH": 21364, "BSTAR": 0.0031114, "MEAN_MOTION_DOT": 0.0008508, "MEAN_MOTION_DDOT": 0}, "tle": {"line1": "1 50404U 82092ADS 25358.02226744  .00085080  00000+0  31114-2 0  9996", "line2": "2 50404  82.2021 203.4680 0167278 160.1266 200.6591 15.15534968213642"}}, "geometry": {"type": "Point", "coordinates": [-169.48896436273432, -57.784796204763275]}}, {"type": "Feature", "properties": {"norad_id": 50621, "name": "COSMOS 1408 DEB", "group": "cosmos-1408-debris", "lat": 0.4967485970725975, "lon": -118.03573593767764, "alt_km": 391.60186406871617, "timestamp": "2025-12-24T09:46:31.274664+00:00", "meta": {"OBJECT_NAME": "COSMOS 1408 DEB", "OBJECT_ID": "1982-092ALR", "EPOCH": "2025-12-23T14:30:12.364992", "MEAN_MOTION": 15.57201045, "ECCENTRICITY": 0.00290955, "INCLINATION": 82.5688, "RA_OF_ASC_NODE": 62.8659, "ARG_OF_PERICENTER": 113.3373, "MEAN_ANOMALY": 247.0948, "EPHEMERIS_TYPE": 0, "CLASSIFICATION_TYPE": "U", "NORAD_CAT_ID": 50621, "ELEMENT_SET_NO": 999, "REV_AT_EPOCH": 22419, "BSTAR": 0.00035622213, "MEAN_MOTION_DOT": 0.00026487, "MEAN_MOTION_DDOT": 0}, "tle": {"line1": "1 50621U 82092ALR 25357.60430978  .00026487  00000+0  35622-3 0  9991", "line2": "2 50621  82.5688  62.8659 0029095 113.3373 247.0948 15.57201045224197"}}, "geometry": {"type": "Point", "coordinates": [-118.03573593767764, 0.4967485970725975]}}]}